{
"type": "FeatureCollection",
"name": "typhoon2019_breach_WGS84",
"crs": { "type": "name", "properties": { "name": "urn:ogc:def:crs:OGC:1.3:CRS84" } },
"features": [
{"type": "Feature", "properties": {"num": "①", "text": "越辺川右岸0.0k付近 堤防決壊", "type": "堤防決壊", "river": "越辺川", "bank": "右岸", "color": "#FF0000", "year": 2019, "event": "令和元年東日本台風（台風19号）", "note": "埼玉県川越市平塚新田地先 10月13日5時25分頃確認", "source": "国土交通省「令和元年10月11日からの台風19号による出水状況等について 第4報」令和2年4月10日"}, "geometry": {"type": "Point", "coordinates": [139.468161, 35.959104]}},
{"type": "Feature", "properties": {"num": "②", "text": "越辺川左岸7.6k付近（九十九川左岸0.0k付近） 堤防決壊", "type": "堤防決壊", "river": "越辺川", "bank": "左岸", "color": "#FF0000", "year": 2019, "event": "令和元年東日本台風（台風19号）", "note": "埼玉県東松山市正代地先 10月13日6時00分頃確認", "source": "国土交通省「令和元年10月11日からの台風19号による出水状況等について第4報」令和2年4月10日"}, "geometry": {"type": "Point", "coordinates": [139.417164, 35.994765]}},
{"type": "Feature", "properties": {"num": "③", "text": "都幾川右岸0.4k付近 堤防決壊", "type": "堤防決壊", "river": "都幾川", "bank": "右岸", "color": "#FF0000", "year": 2019, "event": "令和元年東日本台風（台風19号）", "note": "埼玉県東松山市早俣地先 10月13日7時15分頃確認", "source": "国土交通省「令和元年10月11日からの台風19号による出水状況等について第4報」令和2年4月10日"}, "geometry": {"type": "Point", "coordinates": [139.422568, 35.998531]}},
{"type": "Feature", "properties": {"num": "④", "text": "都幾川右岸5.9k付近 堤防決壊", "type": "堤防決壊", "river": "都幾川", "bank": "右岸", "color": "#FF0000", "year": 2019, "event": "令和元年東日本台風（台風19号）", "note": "埼玉県東松山市葛袋地先 10月13日14時50分", "source": "国土交通省「令和元年10月11日からの台風19号による出水状況等について第4報」令和2年4月10日"}, "geometry": {"type": "Point", "coordinates": [139.376514, 36.019684]}},
{"type": "Feature", "properties": {"num": "⑤", "text": "都幾川左岸6.2k付近 越水", "type": "越水", "river": "都幾川", "bank": "左岸", "color": "#FFA500", "year": 2019, "event": "令和元年東日本台風（台風19号）", "note": "埼玉県東松山市葛袋地先 10月12日18時40分頃越水を確認、6.0kから6.6kの間と推測", "source": "国土交通省「令和元年10月11日からの台風19号による出水状況等について 第4報」令和2年4月10日、「荒川水系都幾川堤防調査報告書」令和2年9月"}, "geometry": {"type": "Point", "coordinates": [139.373425, 36.023021]}},
{"type": "Feature", "properties": {"num": "⑥", "text": "都幾川左岸6.5k付近 堤防決壊", "type": "堤防決壊", "river": "都幾川", "bank": "左岸", "color": "#FF0000", "year": 2019, "event": "令和元年東日本台風（台風19号）", "note": "埼玉県東松山市石橋地先 10月13日9時00分頃確認", "source": "国土交通省「令和元年10月11日からの台風19号による出水状況等について第4報」令和2年4月10日"}, "geometry": {"type": "Point", "coordinates": [139.371184, 36.023422]}},
{"type": "Feature", "properties": {"num": "⑦", "text": "都幾川右岸8.0k付近 堤防決壊", "type": "堤防決壊", "river": "都幾川", "bank": "右岸", "color": "#FF0000", "year": 2019, "event": "令和元年東日本台風（台風19号）", "note": "埼玉県東松山市神戸地先", "source": "入間川流域令和元年東日本台風の記録 令和3年6月"}, "geometry": {"type": "Point", "coordinates": [139.357666, 36.024259]}}
]
}
